{
  "norad_id": 51126,
  "name": "STARLINK-3386",
  "history": [
    {
      "epoch": "2026-04-14T19:01:17.508000Z",
      "apogee_km": 540.51624549388,
      "perigee_km": 538.9832417914886,
      "latitude_deg": -4.111838213630795e-05,
      "longitude_deg": 8.772420485033408,
      "height_km": 540.573957582937,
      "semi_major_axis_km": 6917.8867436426835,
      "eccentricity": 0.0001108,
      "inclination_deg": 53.2165,
      "raan_deg": 137.0593,
      "arg_perigee_deg": 84.6285,
      "mean_anomaly_deg": 275.4833,
      "mean_motion_rev_day": 15.08837921
    },
    {
      "epoch": "2026-04-15T09:19:46.487136Z",
      "apogee_km": 540.5581653510053,
      "perigee_km": 538.9858629902656,
      "latitude_deg": 4.495598528303182e-06,
      "longitude_deg": 150.8884983684524,
      "height_km": 540.6076305543212,
      "semi_major_axis_km": 6917.909014170636,
      "eccentricity": 0.00011364,
      "inclination_deg": 53.217,
      "raan_deg": 134.3837,
      "arg_perigee_deg": 85.5969,
      "mean_anomaly_deg": 274.5153,
      "mean_motion_rev_day": 15.08830635
    },
    {
      "epoch": "2026-04-16T18:42:52.577280Z",
      "apogee_km": 540.5562515795527,
      "perigee_km": 538.9637516897765,
      "latitude_deg": -5.656104107877305e-06,
      "longitude_deg": 2.4977436589911384,
      "height_km": 540.562180613646,
      "semi_major_axis_km": 6917.897001634665,
      "eccentricity": 0.0001151,
      "inclination_deg": 53.2164,
      "raan_deg": 128.1394,
      "arg_perigee_deg": 83.2406,
      "mean_anomaly_deg": 276.8717,
      "mean_motion_rev_day": 15.08834565
    },
    {
      "epoch": "2026-04-17T18:33:39.811680Z",
      "apogee_km": 540.4680975910023,
      "perigee_km": 539.0561543793892,
      "latitude_deg": 2.0921266950827876e-05,
      "longitude_deg": -0.6397843343774607,
      "height_km": 540.6075878034543,
      "semi_major_axis_km": 6917.8991259851955,
      "eccentricity": 0.00010205,
      "inclination_deg": 53.2162,
      "raan_deg": 123.678,
      "arg_perigee_deg": 85.8916,
      "mean_anomaly_deg": 274.2193,
      "mean_motion_rev_day": 15.0883387
    },
    {
      "epoch": "2026-04-18T12:02:54.342240Z",
      "apogee_km": 540.5490401964562,
      "perigee_km": 538.9565419665496,
      "latitude_deg": -1.2978132956569062e-05,
      "longitude_deg": 93.06046596769633,
      "height_km": 540.559718107193,
      "semi_major_axis_km": 6917.889791081503,
      "eccentricity": 0.0001151,
      "inclination_deg": 53.2162,
      "raan_deg": 120.407,
      "arg_perigee_deg": 83.586,
      "mean_anomaly_deg": 276.5263,
      "mean_motion_rev_day": 15.08836924
    }
  ]
}